[{"OBJECT_NAME":"STARLINK-4101","OBJECT_ID":"2022-083L","EPOCH":"2026-03-09T12:30:19.151136","MEAN_MOTION":15.08842579,"ECCENTRICITY":0.00011982,"INCLINATION":53.2176,"RA_OF_ASC_NODE":174.8509,"ARG_OF_PERICENTER":88.3668,"MEAN_ANOMALY":271.7462,"EPHEMERIS_TYPE":0,"CLASSIFICATION_TYPE":"U","NORAD_CAT_ID":53142,"ELEMENT_SET_NO":999,"REV_AT_EPOCH":20120,"BSTAR":1.1053572e-5,"MEAN_MOTION_DOT":-1.12e-6,"MEAN_MOTION_DDOT":0},{"OBJECT_NAME":"FREGAT DEB","OBJECT_ID":"2011-037BR","EPOCH":"2026-03-08T16:41:19.114368","MEAN_MOTION":11.55431875,"ECCENTRICITY":0.16348363,"INCLINATION":51.442,"RA_OF_ASC_NODE":302.7911,"ARG_OF_PERICENTER":221.4876,"MEAN_ANOMALY":124.9869,"EPHEMERIS_TYPE":0,"CLASSIFICATION_TYPE":"U","NORAD_CAT_ID":45831,"ELEMENT_SET_NO":999,"REV_AT_EPOCH":24228,"BSTAR":0.0010461944,"MEAN_MOTION_DOT":1.975e-5,"MEAN_MOTION_DDOT":0}]
